{
  "ttl": 0,
  "version": "2.3",
  "data": {
    "stations": [
      {
        "name": "Metropole Europeenne de Lille (CB)",
        "capacity": 36,
        "station_id": "1",
        "lat": 50.641926,
        "lon": 3.075992,
        "post_code": "59000",
        "parking_type": "street_parking",
        "parking_hoop": true,
        "is_virtual_station": false
      },
      {
        "name": "Rihour",
        "capacity": 32,
        "station_id": "10",
        "lat": 50.63589,
        "lon": 3.062471,
        "post_code": "59000",
        "parking_type": "street_parking",
        "parking_hoop": true,
        "is_virtual_station": false
      },
      {
        "name": "Saint Maur",
        "capacity": 24,
        "station_id": "100",
        "lat": 50.651638,
        "lon": 3.081625,
        "post_code": "59110",
        "parking_type": "street_parking",
        "parking_hoop": true,
        "is_virtual_station": false
      },
      {
        "name": "Mons Sarts",
        "capacity": 24,
        "station_id": "101",
        "lat": 50.6423,
        "lon": 3.099291,
        "post_code": "59370",
        "parking_type": "street_parking",
        "parking_hoop": true,
        "is_virtual_station": false
      },
      {
        "name": "Mairie de Mons",
        "capacity": 16,
        "station_id": "102",
        "lat": 50.64218,
        "lon": 3.109699,
        "post_code": "59370",
        "parking_type": "street_parking",
        "parking_hoop": true,
        "is_virtual_station": false
      },
      {
        "name": "Lacordaire",
        "capacity": 16,
        "station_id": "103",
        "lat": 50.639828,
        "lon": 3.106677,
        "post_code": "59370",
        "parking_type": "street_parking",
        "parking_hoop": true,
        "is_virtual_station": false
      },
      {
        "name": "Mendes France",
        "capacity": 18,
        "station_id": "104",
        "lat": 50.64584,
        "lon": 3.112744,
        "post_code": "59370",
        "parking_type": "street_parking",
        "parking_hoop": true,
        "is_virtual_station": false
      },
      {
        "name": "Lavoisier",
        "capacity": 12,
        "station_id": "107",
        "lat": 50.636105,
        "lon": 3.106438,
        "post_code": "59370",
        "parking_type": "street_parking",
        "parking_hoop": true,
        "is_virtual_station": false
      },
      {
        "name": "General de Gaulle",
        "capacity": 20,
        "station_id": "108",
        "lat": 50.645267,
        "lon": 3.100516,
        "post_code": "59370",
        "parking_type": "street_parking",
        "parking_hoop": true,
        "is_virtual_station": false
      },
      {
        "name": "Nouveau siecle",
        "capacity": 32,
        "station_id": "11",
        "lat": 50.63734,
        "lon": 3.060977,
        "post_code": "59000",
        "parking_type": "street_parking",
        "parking_hoop": true,
        "is_virtual_station": false
      },
      {
        "name": "Rue Bonte-Pollet",
        "capacity": 16,
        "station_id": "110",
        "lat": 50.62487,
        "lon": 3.034234,
        "post_code": "59000",
        "parking_type": "street_parking",
        "parking_hoop": true,
        "is_virtual_station": false
      },
      {
        "name": "Hellemmes Cimetiere",
        "capacity": 12,
        "station_id": "111",
        "lat": 50.62486,
        "lon": 3.116677,
        "post_code": "59260",
        "parking_type": "street_parking",
        "parking_hoop": true,
        "is_virtual_station": false
      },
      {
        "name": "Avenue de Mormal",
        "capacity": 18,
        "station_id": "113",
        "lat": 50.651337,
        "lon": 3.08945,
        "post_code": "59000",
        "parking_type": "street_parking",
        "parking_hoop": true,
        "is_virtual_station": false
      },
      {
        "name": "Bois Habite",
        "capacity": 17,
        "station_id": "114",
        "lat": 50.62651,
        "lon": 3.079211,
        "post_code": "59000",
        "parking_type": "street_parking",
        "parking_hoop": true,
        "is_virtual_station": false
      },
      {
        "name": "De Gaulle",
        "capacity": 18,
        "station_id": "115",
        "lat": 50.651497,
        "lon": 3.072316,
        "post_code": "59110",
        "parking_type": "street_parking",
        "parking_hoop": true,
        "is_virtual_station": false
      },
      {
        "name": "Botanique",
        "capacity": 16,
        "station_id": "116",
        "lat": 50.64891,
        "lon": 3.078336,
        "post_code": "59110",
        "parking_type": "street_parking",
        "parking_hoop": true,
        "is_virtual_station": false
      },
      {
        "name": "Hippodrome",
        "capacity": 21,
        "station_id": "117",
        "lat": 50.641617,
        "lon": 3.031375,
        "post_code": "59130",
        "parking_type": "street_parking",
        "parking_hoop": true,
        "is_virtual_station": false
      },
      {
        "name": "Lomme-Lambersart",
        "capacity": 18,
        "station_id": "119",
        "lat": 50.640957,
        "lon": 3.018803,
        "post_code": "59130",
        "parking_type": "street_parking",
        "parking_hoop": true,
        "is_virtual_station": false
      },
      {
        "name": "Opera",
        "capacity": 25,
        "station_id": "12",
        "lat": 50.637486,
        "lon": 3.065902,
        "post_code": "59000",
        "parking_type": "street_parking",
        "parking_hoop": true,
        "is_virtual_station": false
      },
      {
        "name": "Lomme Mairie",
        "capacity": 18,
        "station_id": "120",
        "lat": 50.63899,
        "lon": 3.01154,
        "post_code": "59160",
        "parking_type": "street_parking",
        "parking_hoop": true,
        "is_virtual_station": false
      },
      {
        "name": "Pont superieur",
        "capacity": 16,
        "station_id": "121",
        "lat": 50.644855,
        "lon": 3.013238,
        "post_code": "59160",
        "parking_type": "street_parking",
        "parking_hoop": true,
        "is_virtual_station": false
      },
      {
        "name": "Piscine de Marcq",
        "capacity": 16,
        "station_id": "122",
        "lat": 50.666033,
        "lon": 3.087591,
        "post_code": "59700",
        "parking_type": "street_parking",
        "parking_hoop": true,
        "is_virtual_station": false
      },
      {
        "name": "Rue de l'Eglise",
        "capacity": 17,
        "station_id": "123",
        "lat": 50.665348,
        "lon": 3.075792,
        "post_code": "59700",
        "parking_type": "street_parking",
        "parking_hoop": true,
        "is_virtual_station": false
      },
      {
        "name": "Clemenceau Hippodrome",
        "capacity": 18,
        "station_id": "124",
        "lat": 50.6618,
        "lon": 3.096235,
        "post_code": "59700",
        "parking_type": "street_parking",
        "parking_hoop": true,
        "is_virtual_station": false
      },
      {
        "name": "Fort de Mons",
        "capacity": 20,
        "station_id": "125",
        "lat": 50.64208,
        "lon": 3.119232,
        "post_code": "59370",
        "parking_type": "street_parking",
        "parking_hoop": true,
        "is_virtual_station": false
      },
      {
        "name": "Quai du Wault",
        "capacity": 18,
        "station_id": "13",
        "lat": 50.63671,
        "lon": 3.054773,
        "post_code": "59000",
        "parking_type": "street_parking",
        "parking_hoop": true,
        "is_virtual_station": false
      },
      {
        "name": "Pont de Bois",
        "capacity": 30,
        "station_id": "130",
        "lat": 50.62435,
        "lon": 3.1283,
        "post_code": "59650",
        "parking_type": "street_parking",
        "parking_hoop": true,
        "is_virtual_station": false
      },
      {
        "name": "V.Ascq Hotel de Ville",
        "capacity": 25,
        "station_id": "131",
        "lat": 50.619602,
        "lon": 3.13197,
        "post_code": "59650",
        "parking_type": "street_parking",
        "parking_hoop": true,
        "is_virtual_station": false
      },
      {
        "name": "Centre Commercial V2",
        "capacity": 19,
        "station_id": "132",
        "lat": 50.61606,
        "lon": 3.132006,
        "post_code": "59650",
        "parking_type": "street_parking",
        "parking_hoop": true,
        "is_virtual_station": false
      },
      {
        "name": "Boulevard de Valmy",
        "capacity": 18,
        "station_id": "133",
        "lat": 50.61915,
        "lon": 3.126501,
        "post_code": "59650",
        "parking_type": "street_parking",
        "parking_hoop": true,
        "is_virtual_station": false
      },
      {
        "name": "Flers Masquelier",
        "capacity": 24,
        "station_id": "135",
        "lat": 50.63745,
        "lon": 3.123145,
        "post_code": "59650",
        "parking_type": "street_parking",
        "parking_hoop": true,
        "is_virtual_station": false
      },
      {
        "name": "Heron Parc",
        "capacity": 30,
        "station_id": "137",
        "lat": 50.615868,
        "lon": 3.126089,
        "post_code": "59650",
        "parking_type": "street_parking",
        "parking_hoop": true,
        "is_virtual_station": false
      },
      {
        "name": "Ladriere",
        "capacity": 20,
        "station_id": "138",
        "lat": 50.631298,
        "lon": 3.126914,
        "post_code": "59650",
        "parking_type": "street_parking",
        "parking_hoop": true,
        "is_virtual_station": false
      },
      {
        "name": "Rue de Lille",
        "capacity": 16,
        "station_id": "139",
        "lat": 50.62577,
        "lon": 3.144714,
        "post_code": "59650",
        "parking_type": "street_parking",
        "parking_hoop": true,
        "is_virtual_station": false
      },
      {
        "name": "Champ de Mars",
        "capacity": 0,
        "station_id": "14",
        "lat": 50.63778,
        "lon": 3.050661,
        "post_code": "59000",
        "parking_type": "street_parking",
        "parking_hoop": true,
        "is_virtual_station": false
      },
      {
        "name": "Metro Triolo",
        "capacity": 24,
        "station_id": "141",
        "lat": 50.61682,
        "lon": 3.140808,
        "post_code": "59650",
        "parking_type": "street_parking",
        "parking_hoop": true,
        "is_virtual_station": false
      },
      {
        "name": "Tremiere",
        "capacity": 20,
        "station_id": "142",
        "lat": 50.6206,
        "lon": 3.138207,
        "post_code": "59650",
        "parking_type": "street_parking",
        "parking_hoop": true,
        "is_virtual_station": false
      },
      {
        "name": "Annappes Republique",
        "capacity": 24,
        "station_id": "144",
        "lat": 50.6258,
        "lon": 3.14862,
        "post_code": "59650",
        "parking_type": "street_parking",
        "parking_hoop": true,
        "is_virtual_station": false
      },
      {
        "name": "Solferino Nationale",
        "capacity": 19,
        "station_id": "146",
        "lat": 50.63268,
        "lon": 3.052483,
        "post_code": "59000",
        "parking_type": "street_parking",
        "parking_hoop": true,
        "is_virtual_station": false
      },
      {
        "name": "Faubourg d'Arras",
        "capacity": 16,
        "station_id": "147",
        "lat": 50.614052,
        "lon": 3.062195,
        "post_code": "59000",
        "parking_type": "street_parking",
        "parking_hoop": true,
        "is_virtual_station": false
      },
      {
        "name": "P.I. de Douai",
        "capacity": 20,
        "station_id": "148",
        "lat": 50.612194,
        "lon": 3.074952,
        "post_code": "59000",
        "parking_type": "street_parking",
        "parking_hoop": true,
        "is_virtual_station": false
      },
      {
        "name": "Jean Jaures",
        "capacity": 17,
        "station_id": "149",
        "lat": 50.609592,
        "lon": 3.075483,
        "post_code": "59790",
        "parking_type": "street_parking",
        "parking_hoop": true,
        "is_virtual_station": false
      },
      {
        "name": "Esplanade",
        "capacity": 0,
        "station_id": "15",
        "lat": 50.6449,
        "lon": 3.050645,
        "post_code": "59000",
        "parking_type": "street_parking",
        "parking_hoop": true,
        "is_virtual_station": false
      },
      {
        "name": "Ronchin Mairie",
        "capacity": 24,
        "station_id": "150",
        "lat": 50.60548,
        "lon": 3.077622,
        "post_code": "59790",
        "parking_type": "street_parking",
        "parking_hoop": true,
        "is_virtual_station": false
      },
      {
        "name": "Ch. des Margueritois",
        "capacity": 13,
        "station_id": "151",
        "lat": 50.60642,
        "lon": 3.072209,
        "post_code": "59790",
        "parking_type": "street_parking",
        "parking_hoop": true,
        "is_virtual_station": false
      },
      {
        "name": "Chemin rouge",
        "capacity": 16,
        "station_id": "152",
        "lat": 50.610582,
        "lon": 3.065103,
        "post_code": "59155",
        "parking_type": "street_parking",
        "parking_hoop": true,
        "is_virtual_station": false
      },
      {
        "name": "Pompidou",
        "capacity": 24,
        "station_id": "153",
        "lat": 50.65547,
        "lon": 3.064989,
        "post_code": "59110",
        "parking_type": "street_parking",
        "parking_hoop": true,
        "is_virtual_station": false
      },
      {
        "name": "Chaufferie",
        "capacity": 16,
        "station_id": "154",
        "lat": 50.65532,
        "lon": 3.060615,
        "post_code": "59110",
        "parking_type": "street_parking",
        "parking_hoop": true,
        "is_virtual_station": false
      },
      {
        "name": "Bailly",
        "capacity": 15,
        "station_id": "155",
        "lat": 50.655098,
        "lon": 3.051201,
        "post_code": "59350",
        "parking_type": "street_parking",
        "parking_hoop": true,
        "is_virtual_station": false
      },
      {
        "name": "St Andre Mairie",
        "capacity": 24,
        "station_id": "156",
        "lat": 50.661602,
        "lon": 3.050322,
        "post_code": "59350",
        "parking_type": "street_parking",
        "parking_hoop": true,
        "is_virtual_station": false
      },
      {
        "name": "Canon d'Or",
        "capacity": 16,
        "station_id": "157",
        "lat": 50.64989,
        "lon": 3.042045,
        "post_code": "59130",
        "parking_type": "street_parking",
        "parking_hoop": true,
        "is_virtual_station": false
      },
      {
        "name": "Delecaux",
        "capacity": 20,
        "station_id": "158",
        "lat": 50.644943,
        "lon": 3.036932,
        "post_code": "59130",
        "parking_type": "street_parking",
        "parking_hoop": true,
        "is_virtual_station": false
      },
      {
        "name": "Euralille",
        "capacity": 40,
        "station_id": "159",
        "lat": 50.637726,
        "lon": 3.071892,
        "post_code": "59000",
        "parking_type": "street_parking",
        "parking_hoop": true,
        "is_virtual_station": false
      },
      {
        "name": "Magasin",
        "capacity": 16,
        "station_id": "16",
        "lat": 50.646225,
        "lon": 3.053499,
        "post_code": "59000",
        "parking_type": "street_parking",
        "parking_hoop": true,
        "is_virtual_station": false
      },
      {
        "name": "Angellier",
        "capacity": 26,
        "station_id": "162",
        "lat": 50.628544,
        "lon": 3.065015,
        "post_code": "59000",
        "parking_type": "street_parking",
        "parking_hoop": true,
        "is_virtual_station": false
      },
      {
        "name": "Halle aux sucres",
        "capacity": 19,
        "station_id": "17",
        "lat": 50.644695,
        "lon": 3.060867,
        "post_code": "59000",
        "parking_type": "street_parking",
        "parking_hoop": true,
        "is_virtual_station": false
      },
      {
        "name": "La Fileuse",
        "capacity": 18,
        "station_id": "178",
        "lat": 50.615164,
        "lon": 3.018471,
        "post_code": "59120",
        "parking_type": "street_parking",
        "parking_hoop": true,
        "is_virtual_station": false
      },
      {
        "name": "Voltaire",
        "capacity": 14,
        "station_id": "18",
        "lat": 50.6428,
        "lon": 3.055932,
        "post_code": "59000",
        "parking_type": "street_parking",
        "parking_hoop": true,
        "is_virtual_station": false
      },
      {
        "name": "Rue Royale",
        "capacity": 24,
        "station_id": "19",
        "lat": 50.64031,
        "lon": 3.05774,
        "post_code": "59000",
        "parking_type": "street_parking",
        "parking_hoop": true,
        "is_virtual_station": false
      },
      {
        "name": "Universite Catholique",
        "capacity": 31,
        "station_id": "2",
        "lat": 50.632233,
        "lon": 3.046134,
        "post_code": "59800",
        "parking_type": "street_parking",
        "parking_hoop": true,
        "is_virtual_station": false
      },
      {
        "name": "N.D. de la Treille",
        "capacity": 30,
        "station_id": "20",
        "lat": 50.640385,
        "lon": 3.062053,
        "post_code": "59000",
        "parking_type": "street_parking",
        "parking_hoop": true,
        "is_virtual_station": false
      },
      {
        "name": "Mairie de Croix",
        "capacity": 24,
        "station_id": "200",
        "lat": 50.679123,
        "lon": 3.155906,
        "post_code": "59170",
        "parking_type": "street_parking",
        "parking_hoop": true,
        "is_virtual_station": false
      },
      {
        "name": "Edhec",
        "capacity": 30,
        "station_id": "201",
        "lat": 50.673699,
        "lon": 3.163373,
        "post_code": "59170",
        "parking_type": "street_parking",
        "parking_hoop": true,
        "is_virtual_station": false
      },
      {
        "name": "Parc Barbieux",
        "capacity": 24,
        "station_id": "202",
        "lat": 50.678038,
        "lon": 3.162436,
        "post_code": "59100",
        "parking_type": "street_parking",
        "parking_hoop": true,
        "is_virtual_station": false
      },
      {
        "name": "Victor Provo",
        "capacity": 16,
        "station_id": "203",
        "lat": 50.68079,
        "lon": 3.167454,
        "post_code": "59100",
        "parking_type": "street_parking",
        "parking_hoop": true,
        "is_virtual_station": false
      },
      {
        "name": "Jean Moulin",
        "capacity": 15,
        "station_id": "204",
        "lat": 50.684757,
        "lon": 3.171974,
        "post_code": "59100",
        "parking_type": "street_parking",
        "parking_hoop": true,
        "is_virtual_station": false
      },
      {
        "name": "Condition Publique",
        "capacity": 18,
        "station_id": "205",
        "lat": 50.691007,
        "lon": 3.190299,
        "post_code": "59100",
        "parking_type": "street_parking",
        "parking_hoop": true,
        "is_virtual_station": false
      },
      {
        "name": "Alfred Mongy",
        "capacity": 16,
        "station_id": "206",
        "lat": 50.688015,
        "lon": 3.174815,
        "post_code": "59100",
        "parking_type": "street_parking",
        "parking_hoop": true,
        "is_virtual_station": false
      },
      {
        "name": "Euroteleport",
        "capacity": 30,
        "station_id": "207",
        "lat": 50.691323,
        "lon": 3.17974,
        "post_code": "59100",
        "parking_type": "street_parking",
        "parking_hoop": true,
        "is_virtual_station": false
      },
      {
        "name": "De Fourmies",
        "capacity": 12,
        "station_id": "208",
        "lat": 50.67544,
        "lon": 3.181998,
        "post_code": "59100",
        "parking_type": "street_parking",
        "parking_hoop": true,
        "is_virtual_station": false
      },
      {
        "name": "Usine",
        "capacity": 20,
        "station_id": "209",
        "lat": 50.674995,
        "lon": 3.195737,
        "post_code": "59100",
        "parking_type": "street_parking",
        "parking_hoop": true,
        "is_virtual_station": false
      },
      {
        "name": "Place du Concert",
        "capacity": 20,
        "station_id": "21",
        "lat": 50.64193,
        "lon": 3.061774,
        "post_code": "59000",
        "parking_type": "street_parking",
        "parking_hoop": true,
        "is_virtual_station": false
      },
      {
        "name": "Linne",
        "capacity": 6,
        "station_id": "210",
        "lat": 50.676884,
        "lon": 3.187817,
        "post_code": "59100",
        "parking_type": "street_parking",
        "parking_hoop": true,
        "is_virtual_station": false
      },
      {
        "name": "Gustave Delory",
        "capacity": 18,
        "station_id": "211",
        "lat": 50.674164,
        "lon": 3.174519,
        "post_code": "59100",
        "parking_type": "street_parking",
        "parking_hoop": true,
        "is_virtual_station": false
      },
      {
        "name": "Danielle Lesaffre",
        "capacity": 10,
        "station_id": "212",
        "lat": 50.682053,
        "lon": 3.182205,
        "post_code": "59100",
        "parking_type": "street_parking",
        "parking_hoop": true,
        "is_virtual_station": false
      },
      {
        "name": "Lannoy",
        "capacity": 18,
        "station_id": "213",
        "lat": 50.68859,
        "lon": 3.182028,
        "post_code": "59100",
        "parking_type": "street_parking",
        "parking_hoop": true,
        "is_virtual_station": false
      },
      {
        "name": "Saint Jean-Baptiste",
        "capacity": 12,
        "station_id": "214",
        "lat": 50.679472,
        "lon": 3.179333,
        "post_code": "59100",
        "parking_type": "street_parking",
        "parking_hoop": true,
        "is_virtual_station": false
      },
      {
        "name": "Fraternite",
        "capacity": 16,
        "station_id": "216",
        "lat": 50.681779,
        "lon": 3.194129,
        "post_code": "59100",
        "parking_type": "street_parking",
        "parking_hoop": true,
        "is_virtual_station": false
      },
      {
        "name": "Hopital Victor Provo",
        "capacity": 16,
        "station_id": "217",
        "lat": 50.67869,
        "lon": 3.172558,
        "post_code": "59100",
        "parking_type": "street_parking",
        "parking_hoop": true,
        "is_virtual_station": false
      },
      {
        "name": "Gare Jean Lebas",
        "capacity": 17,
        "station_id": "219",
        "lat": 50.695563,
        "lon": 3.164242,
        "post_code": "59100",
        "parking_type": "street_parking",
        "parking_hoop": true,
        "is_virtual_station": false
      },
      {
        "name": "Louise de Bettignies",
        "capacity": 30,
        "station_id": "22",
        "lat": 50.64144,
        "lon": 3.064974,
        "post_code": "59000",
        "parking_type": "street_parking",
        "parking_hoop": true,
        "is_virtual_station": false
      },
      {
        "name": "Musee Art et Industrie",
        "capacity": 14,
        "station_id": "220",
        "lat": 50.693768,
        "lon": 3.167666,
        "post_code": "59100",
        "parking_type": "street_parking",
        "parking_hoop": true,
        "is_virtual_station": false
      },
      {
        "name": "Roubaix Mairie",
        "capacity": 30,
        "station_id": "221",
        "lat": 50.69184,
        "lon": 3.173925,
        "post_code": "59100",
        "parking_type": "street_parking",
        "parking_hoop": true,
        "is_virtual_station": false
      },
      {
        "name": "Place Trichon",
        "capacity": 12,
        "station_id": "223",
        "lat": 50.6903353,
        "lon": 3.1690075,
        "post_code": "59100",
        "parking_type": "street_parking",
        "parking_hoop": true,
        "is_virtual_station": false
      },
      {
        "name": "Centre Nautique",
        "capacity": 14,
        "station_id": "224",
        "lat": 50.691406,
        "lon": 3.162704,
        "post_code": "59100",
        "parking_type": "street_parking",
        "parking_hoop": true,
        "is_virtual_station": false
      },
      {
        "name": "Epeule Montesquieu",
        "capacity": 16,
        "station_id": "225",
        "lat": 50.683987,
        "lon": 3.16327,
        "post_code": "59100",
        "parking_type": "street_parking",
        "parking_hoop": true,
        "is_virtual_station": false
      },
      {
        "name": "Charles de Gaulle",
        "capacity": 16,
        "station_id": "226",
        "lat": 50.68645,
        "lon": 3.170006,
        "post_code": "59100",
        "parking_type": "street_parking",
        "parking_hoop": true,
        "is_virtual_station": false
      },
      {
        "name": "Bvrd Armentieres",
        "capacity": 8,
        "station_id": "227",
        "lat": 50.699436,
        "lon": 3.159658,
        "post_code": "59100",
        "parking_type": "street_parking",
        "parking_hoop": true,
        "is_virtual_station": false
      },
      {
        "name": "Nations Unies",
        "capacity": 18,
        "station_id": "229",
        "lat": 50.692368,
        "lon": 3.185092,
        "post_code": "59100",
        "parking_type": "street_parking",
        "parking_hoop": true,
        "is_virtual_station": false
      },
      {
        "name": "Rue des Arts",
        "capacity": 18,
        "station_id": "23",
        "lat": 50.639107,
        "lon": 3.065767,
        "post_code": "59000",
        "parking_type": "street_parking",
        "parking_hoop": true,
        "is_virtual_station": false
      },
      {
        "name": "De la Vigne",
        "capacity": 11,
        "station_id": "230",
        "lat": 50.70076,
        "lon": 3.18407,
        "post_code": "59100",
        "parking_type": "street_parking",
        "parking_hoop": true,
        "is_virtual_station": false
      },
      {
        "name": "Fosse aux Chenes",
        "capacity": 14,
        "station_id": "232",
        "lat": 50.699734,
        "lon": 3.174347,
        "post_code": "59100",
        "parking_type": "street_parking",
        "parking_hoop": true,
        "is_virtual_station": false
      },
      {
        "name": "Alsace",
        "capacity": 16,
        "station_id": "234",
        "lat": 50.7004,
        "lon": 3.161378,
        "post_code": "59100",
        "parking_type": "street_parking",
        "parking_hoop": true,
        "is_virtual_station": false
      },
      {
        "name": "Chaptal",
        "capacity": 12,
        "station_id": "236",
        "lat": 50.694714,
        "lon": 3.192643,
        "post_code": "59100",
        "parking_type": "street_parking",
        "parking_hoop": true,
        "is_virtual_station": false
      },
      {
        "name": "Rue des Anges",
        "capacity": 6,
        "station_id": "237",
        "lat": 50.719878,
        "lon": 3.156464,
        "post_code": "59200",
        "parking_type": "street_parking",
        "parking_hoop": true,
        "is_virtual_station": false
      },
      {
        "name": "Theatre Tourcoing",
        "capacity": 9,
        "station_id": "238",
        "lat": 50.720747,
        "lon": 3.152787,
        "post_code": "59200",
        "parking_type": "street_parking",
        "parking_hoop": true,
        "is_virtual_station": false
      },
      {
        "name": "Bvrd de l Egalite",
        "capacity": 14,
        "station_id": "239",
        "lat": 50.730289,
        "lon": 3.167723,
        "post_code": "59200",
        "parking_type": "street_parking",
        "parking_hoop": true,
        "is_virtual_station": false
      },
      {
        "name": "Flandres Euralille",
        "capacity": 40,
        "station_id": "24",
        "lat": 50.637078,
        "lon": 3.070774,
        "post_code": "59000",
        "parking_type": "street_parking",
        "parking_hoop": true,
        "is_virtual_station": false
      },
      {
        "name": "Poste",
        "capacity": 6,
        "station_id": "240",
        "lat": 50.71922,
        "lon": 3.163396,
        "post_code": "59200",
        "parking_type": "street_parking",
        "parking_hoop": true,
        "is_virtual_station": false
      },
      {
        "name": "Le Corbusier",
        "capacity": 18,
        "station_id": "241",
        "lat": 50.722343,
        "lon": 3.170847,
        "post_code": "59200",
        "parking_type": "street_parking",
        "parking_hoop": true,
        "is_virtual_station": false
      },
      {
        "name": "Tourcoing gare",
        "capacity": 18,
        "station_id": "242",
        "lat": 50.716907,
        "lon": 3.167436,
        "post_code": "59200",
        "parking_type": "street_parking",
        "parking_hoop": true,
        "is_virtual_station": false
      },
      {
        "name": "Victoire",
        "capacity": 12,
        "station_id": "243",
        "lat": 50.718204,
        "lon": 3.15749,
        "post_code": "59200",
        "parking_type": "street_parking",
        "parking_hoop": true,
        "is_virtual_station": false
      },
      {
        "name": "F Roosevelt",
        "capacity": 12,
        "station_id": "244",
        "lat": 50.727453,
        "lon": 3.166828,
        "post_code": "59200",
        "parking_type": "street_parking",
        "parking_hoop": true,
        "is_virtual_station": false
      },
      {
        "name": "Jardin Botanique",
        "capacity": 8,
        "station_id": "245",
        "lat": 50.724581,
        "lon": 3.166122,
        "post_code": "59200",
        "parking_type": "street_parking",
        "parking_hoop": true,
        "is_virtual_station": false
      },
      {
        "name": "Cavell",
        "capacity": 6,
        "station_id": "246",
        "lat": 50.72271,
        "lon": 3.163794,
        "post_code": "59200",
        "parking_type": "street_parking",
        "parking_hoop": true,
        "is_virtual_station": false
      },
      {
        "name": "Rouget de l Isle",
        "capacity": 15,
        "station_id": "247",
        "lat": 50.73418,
        "lon": 3.1681724,
        "post_code": "59200",
        "parking_type": "street_parking",
        "parking_hoop": true,
        "is_virtual_station": false
      },
      {
        "name": "Rue Saint Blaise",
        "capacity": 6,
        "station_id": "248",
        "lat": 50.728798,
        "lon": 3.158835,
        "post_code": "59200",
        "parking_type": "street_parking",
        "parking_hoop": true,
        "is_virtual_station": false
      },
      {
        "name": "Rue de Menin",
        "capacity": 12,
        "station_id": "249",
        "lat": 50.728798,
        "lon": 3.154051,
        "post_code": "59200",
        "parking_type": "street_parking",
        "parking_hoop": true,
        "is_virtual_station": false
      },
      {
        "name": "Gare Lille Flandres",
        "capacity": 32,
        "station_id": "25",
        "lat": 50.636399,
        "lon": 3.069354,
        "post_code": "59000",
        "parking_type": "street_parking",
        "parking_hoop": true,
        "is_virtual_station": false
      },
      {
        "name": "Tourcoing Mairie",
        "capacity": 22,
        "station_id": "250",
        "lat": 50.72389,
        "lon": 3.160344,
        "post_code": "59200",
        "parking_type": "street_parking",
        "parking_hoop": true,
        "is_virtual_station": false
      },
      {
        "name": "Colbert",
        "capacity": 18,
        "station_id": "251",
        "lat": 50.72551,
        "lon": 3.156554,
        "post_code": "59200",
        "parking_type": "street_parking",
        "parking_hoop": true,
        "is_virtual_station": false
      },
      {
        "name": "Rue des Poutrains",
        "capacity": 16,
        "station_id": "252",
        "lat": 50.72263,
        "lon": 3.150377,
        "post_code": "59200",
        "parking_type": "street_parking",
        "parking_hoop": true,
        "is_virtual_station": false
      },
      {
        "name": "Avenue Millet",
        "capacity": 12,
        "station_id": "253",
        "lat": 50.72498,
        "lon": 3.150884,
        "post_code": "59200",
        "parking_type": "street_parking",
        "parking_hoop": true,
        "is_virtual_station": false
      },
      {
        "name": "Sebastopol",
        "capacity": 18,
        "station_id": "254",
        "lat": 50.71732,
        "lon": 3.162455,
        "post_code": "59200",
        "parking_type": "street_parking",
        "parking_hoop": true,
        "is_virtual_station": false
      },
      {
        "name": "Rue de Roubaix",
        "capacity": 12,
        "station_id": "255",
        "lat": 50.7134,
        "lon": 3.165011,
        "post_code": "59200",
        "parking_type": "street_parking",
        "parking_hoop": true,
        "is_virtual_station": false
      },
      {
        "name": "Pont de Neuville",
        "capacity": 12,
        "station_id": "256",
        "lat": 50.73682,
        "lon": 3.1712308,
        "post_code": "59200",
        "parking_type": "street_parking",
        "parking_hoop": true,
        "is_virtual_station": false
      },
      {
        "name": "Charles Wattinne",
        "capacity": 16,
        "station_id": "257",
        "lat": 50.714035,
        "lon": 3.156974,
        "post_code": "59200",
        "parking_type": "street_parking",
        "parking_hoop": true,
        "is_virtual_station": false
      },
      {
        "name": "Carliers",
        "capacity": 12,
        "station_id": "258",
        "lat": 50.710735,
        "lon": 3.159881,
        "post_code": "59200",
        "parking_type": "street_parking",
        "parking_hoop": true,
        "is_virtual_station": false
      },
      {
        "name": "Mercure",
        "capacity": 18,
        "station_id": "259",
        "lat": 50.704693,
        "lon": 3.160515,
        "post_code": "59200",
        "parking_type": "street_parking",
        "parking_hoop": true,
        "is_virtual_station": false
      },
      {
        "name": "Molinel",
        "capacity": 22,
        "station_id": "26",
        "lat": 50.63458,
        "lon": 3.068097,
        "post_code": "59000",
        "parking_type": "street_parking",
        "parking_hoop": true,
        "is_virtual_station": false
      },
      {
        "name": "Place Roussel",
        "capacity": 20,
        "station_id": "260",
        "lat": 50.721308,
        "lon": 3.158104,
        "post_code": "59200",
        "parking_type": "street_parking",
        "parking_hoop": true,
        "is_virtual_station": false
      },
      {
        "name": "Phalempins",
        "capacity": 14,
        "station_id": "261",
        "lat": 50.732406,
        "lon": 3.157764,
        "post_code": "59200",
        "parking_type": "street_parking",
        "parking_hoop": true,
        "is_virtual_station": false
      },
      {
        "name": "Tanneurs",
        "capacity": 36,
        "station_id": "27",
        "lat": 50.635014,
        "lon": 3.064802,
        "post_code": "59000",
        "parking_type": "street_parking",
        "parking_hoop": true,
        "is_virtual_station": false
      },
      {
        "name": "Palais Rameau",
        "capacity": 40,
        "station_id": "28",
        "lat": 50.634297,
        "lon": 3.048936,
        "post_code": "59000",
        "parking_type": "street_parking",
        "parking_hoop": true,
        "is_virtual_station": false
      },
      {
        "name": "St Sebastien",
        "capacity": 28,
        "station_id": "29",
        "lat": 50.647236,
        "lon": 3.059376,
        "post_code": "59000",
        "parking_type": "street_parking",
        "parking_hoop": true,
        "is_virtual_station": false
      },
      {
        "name": "Jardin Vauban",
        "capacity": 0,
        "station_id": "3",
        "lat": 50.636093,
        "lon": 3.050447,
        "post_code": "59800",
        "parking_type": "street_parking",
        "parking_hoop": true,
        "is_virtual_station": false
      },
      {
        "name": "Rue de Gand",
        "capacity": 19,
        "station_id": "30",
        "lat": 50.64297,
        "lon": 3.067375,
        "post_code": "59000",
        "parking_type": "street_parking",
        "parking_hoop": true,
        "is_virtual_station": false
      },
      {
        "name": "Pont Neuf",
        "capacity": 20,
        "station_id": "31",
        "lat": 50.644264,
        "lon": 3.062935,
        "post_code": "59000",
        "parking_type": "street_parking",
        "parking_hoop": true,
        "is_virtual_station": false
      },
      {
        "name": "Place aux Bleuets",
        "capacity": 16,
        "station_id": "32",
        "lat": 50.64142,
        "lon": 3.067873,
        "post_code": "59000",
        "parking_type": "street_parking",
        "parking_hoop": true,
        "is_virtual_station": false
      },
      {
        "name": "Port de Lille",
        "capacity": 26,
        "station_id": "33",
        "lat": 50.63022,
        "lon": 3.035681,
        "post_code": "59000",
        "parking_type": "street_parking",
        "parking_hoop": true,
        "is_virtual_station": false
      },
      {
        "name": "Place Catinat",
        "capacity": 20,
        "station_id": "34",
        "lat": 50.63413,
        "lon": 3.041209,
        "post_code": "59000",
        "parking_type": "street_parking",
        "parking_hoop": true,
        "is_virtual_station": false
      },
      {
        "name": "Leclerc",
        "capacity": 28,
        "station_id": "35",
        "lat": 50.629207,
        "lon": 3.043971,
        "post_code": "59000",
        "parking_type": "street_parking",
        "parking_hoop": true,
        "is_virtual_station": false
      },
      {
        "name": "Cormontaigne",
        "capacity": 36,
        "station_id": "36",
        "lat": 50.62624,
        "lon": 3.039911,
        "post_code": "59000",
        "parking_type": "street_parking",
        "parking_hoop": true,
        "is_virtual_station": false
      },
      {
        "name": "Fulton",
        "capacity": 12,
        "station_id": "37",
        "lat": 50.62337,
        "lon": 3.037553,
        "post_code": "59000",
        "parking_type": "street_parking",
        "parking_hoop": true,
        "is_virtual_station": false
      },
      {
        "name": "Place Casquette",
        "capacity": 18,
        "station_id": "38",
        "lat": 50.62429,
        "lon": 3.045321,
        "post_code": "59000",
        "parking_type": "street_parking",
        "parking_hoop": true,
        "is_virtual_station": false
      },
      {
        "name": "Marche de Wazemmes",
        "capacity": 27,
        "station_id": "39",
        "lat": 50.627674,
        "lon": 3.050173,
        "post_code": "59000",
        "parking_type": "street_parking",
        "parking_hoop": true,
        "is_virtual_station": false
      },
      {
        "name": "Maison Folie Wazemmes",
        "capacity": 20,
        "station_id": "4",
        "lat": 50.624695,
        "lon": 3.048961,
        "post_code": "59000",
        "parking_type": "street_parking",
        "parking_hoop": true,
        "is_virtual_station": false
      },
      {
        "name": "Metro Gambetta",
        "capacity": 28,
        "station_id": "40",
        "lat": 50.62614,
        "lon": 3.051729,
        "post_code": "59000",
        "parking_type": "street_parking",
        "parking_hoop": true,
        "is_virtual_station": false
      },
      {
        "name": "Buisson",
        "capacity": 16,
        "station_id": "41",
        "lat": 50.656487,
        "lon": 3.088004,
        "post_code": "59000",
        "parking_type": "street_parking",
        "parking_hoop": true,
        "is_virtual_station": false
      },
      {
        "name": "Place Philippe Lebon",
        "capacity": 18,
        "station_id": "42",
        "lat": 50.62789,
        "lon": 3.06209,
        "post_code": "59000",
        "parking_type": "street_parking",
        "parking_hoop": true,
        "is_virtual_station": false
      },
      {
        "name": "Theatre Sebastopol",
        "capacity": 32,
        "station_id": "43",
        "lat": 50.629044,
        "lon": 3.058288,
        "post_code": "59000",
        "parking_type": "street_parking",
        "parking_hoop": true,
        "is_virtual_station": false
      },
      {
        "name": "Gambetta Utrecht",
        "capacity": 18,
        "station_id": "44",
        "lat": 50.629063,
        "lon": 3.053711,
        "post_code": "59000",
        "parking_type": "street_parking",
        "parking_hoop": true,
        "is_virtual_station": false
      },
      {
        "name": "Brule Maison",
        "capacity": 18,
        "station_id": "45",
        "lat": 50.62633,
        "lon": 3.05659,
        "post_code": "59000",
        "parking_type": "street_parking",
        "parking_hoop": true,
        "is_virtual_station": false
      },
      {
        "name": "Artois",
        "capacity": 18,
        "station_id": "46",
        "lat": 50.626279,
        "lon": 3.061337,
        "post_code": "59000",
        "parking_type": "street_parking",
        "parking_hoop": true,
        "is_virtual_station": false
      },
      {
        "name": "Boulevard Louis XIV",
        "capacity": 26,
        "station_id": "47",
        "lat": 50.62816,
        "lon": 3.069797,
        "post_code": "59000",
        "parking_type": "street_parking",
        "parking_hoop": true,
        "is_virtual_station": false
      },
      {
        "name": "Porte de Douai",
        "capacity": 26,
        "station_id": "48",
        "lat": 50.61843,
        "lon": 3.07241,
        "post_code": "59000",
        "parking_type": "street_parking",
        "parking_hoop": true,
        "is_virtual_station": false
      },
      {
        "name": "Place Deliot",
        "capacity": 24,
        "station_id": "49",
        "lat": 50.61957,
        "lon": 3.068387,
        "post_code": "59000",
        "parking_type": "street_parking",
        "parking_hoop": true,
        "is_virtual_station": false
      },
      {
        "name": "Massena",
        "capacity": 40,
        "station_id": "5",
        "lat": 50.63156,
        "lon": 3.054738,
        "post_code": "59000",
        "parking_type": "street_parking",
        "parking_hoop": true,
        "is_virtual_station": false
      },
      {
        "name": "Rue d'Arras",
        "capacity": 25,
        "station_id": "50",
        "lat": 50.62224,
        "lon": 3.067004,
        "post_code": "59000",
        "parking_type": "street_parking",
        "parking_hoop": true,
        "is_virtual_station": false
      },
      {
        "name": "JB Lebas",
        "capacity": 40,
        "station_id": "51",
        "lat": 50.62482,
        "lon": 3.068689,
        "post_code": "59000",
        "parking_type": "street_parking",
        "parking_hoop": true,
        "is_virtual_station": false
      },
      {
        "name": "Place Colette Besson",
        "capacity": 22,
        "station_id": "52",
        "lat": 50.62276,
        "lon": 3.063799,
        "post_code": "59000",
        "parking_type": "street_parking",
        "parking_hoop": true,
        "is_virtual_station": false
      },
      {
        "name": "Porte des Postes",
        "capacity": 38,
        "station_id": "53",
        "lat": 50.61856,
        "lon": 3.049251,
        "post_code": "59000",
        "parking_type": "street_parking",
        "parking_hoop": true,
        "is_virtual_station": false
      },
      {
        "name": "Metro Wazemmes",
        "capacity": 20,
        "station_id": "54",
        "lat": 50.62338,
        "lon": 3.051565,
        "post_code": "59000",
        "parking_type": "street_parking",
        "parking_hoop": true,
        "is_virtual_station": false
      },
      {
        "name": "Porte d'Arras",
        "capacity": 24,
        "station_id": "55",
        "lat": 50.617847,
        "lon": 3.061758,
        "post_code": "59000",
        "parking_type": "street_parking",
        "parking_hoop": true,
        "is_virtual_station": false
      },
      {
        "name": "Bd Victor Hugo",
        "capacity": 18,
        "station_id": "56",
        "lat": 50.620304,
        "lon": 3.055471,
        "post_code": "59000",
        "parking_type": "street_parking",
        "parking_hoop": true,
        "is_virtual_station": false
      },
      {
        "name": "Barthelemy Delespaul",
        "capacity": 18,
        "station_id": "57",
        "lat": 50.62418,
        "lon": 3.058902,
        "post_code": "59000",
        "parking_type": "street_parking",
        "parking_hoop": true,
        "is_virtual_station": false
      },
      {
        "name": "Porte de Valenciennes",
        "capacity": 20,
        "station_id": "58",
        "lat": 50.62073,
        "lon": 3.07895,
        "post_code": "59000",
        "parking_type": "street_parking",
        "parking_hoop": true,
        "is_virtual_station": false
      },
      {
        "name": "Republique Beaux Arts ",
        "capacity": 0,
        "station_id": "6",
        "lat": 50.630937,
        "lon": 3.060777,
        "post_code": "59000",
        "parking_type": "street_parking",
        "parking_hoop": true,
        "is_virtual_station": false
      },
      {
        "name": "Trevise",
        "capacity": 20,
        "station_id": "60",
        "lat": 50.621185,
        "lon": 3.072363,
        "post_code": "59000",
        "parking_type": "street_parking",
        "parking_hoop": true,
        "is_virtual_station": false
      },
      {
        "name": "Lille Grand Palais",
        "capacity": 24,
        "station_id": "61",
        "lat": 50.629246,
        "lon": 3.075218,
        "post_code": "59000",
        "parking_type": "street_parking",
        "parking_hoop": true,
        "is_virtual_station": false
      },
      {
        "name": "Zenith",
        "capacity": 30,
        "station_id": "62",
        "lat": 50.632965,
        "lon": 3.076437,
        "post_code": "59000",
        "parking_type": "street_parking",
        "parking_hoop": true,
        "is_virtual_station": false
      },
      {
        "name": "Hotel de Region",
        "capacity": 32,
        "station_id": "63",
        "lat": 50.629738,
        "lon": 3.078224,
        "post_code": "59800",
        "parking_type": "street_parking",
        "parking_hoop": true,
        "is_virtual_station": false
      },
      {
        "name": "Mairie de Lille",
        "capacity": 20,
        "station_id": "64",
        "lat": 50.6318,
        "lon": 3.071392,
        "post_code": "59000",
        "parking_type": "street_parking",
        "parking_hoop": true,
        "is_virtual_station": false
      },
      {
        "name": "Place Tacq",
        "capacity": 18,
        "station_id": "65",
        "lat": 50.621128,
        "lon": 3.035483,
        "post_code": "59000",
        "parking_type": "street_parking",
        "parking_hoop": true,
        "is_virtual_station": false
      },
      {
        "name": "Delesalle Mediatheque",
        "capacity": 18,
        "station_id": "66",
        "lat": 50.63237,
        "lon": 3.066273,
        "post_code": "59000",
        "parking_type": "street_parking",
        "parking_hoop": true,
        "is_virtual_station": false
      },
      {
        "name": "Montebello",
        "capacity": 24,
        "station_id": "67",
        "lat": 50.621952,
        "lon": 3.04534,
        "post_code": "59000",
        "parking_type": "street_parking",
        "parking_hoop": true,
        "is_virtual_station": false
      },
      {
        "name": "Nationale Rue du Port",
        "capacity": 24,
        "station_id": "68",
        "lat": 50.630836,
        "lon": 3.047778,
        "post_code": "59000",
        "parking_type": "street_parking",
        "parking_hoop": true,
        "is_virtual_station": false
      },
      {
        "name": "Chasseurs de Driant",
        "capacity": 22,
        "station_id": "69",
        "lat": 50.61893,
        "lon": 3.032539,
        "post_code": "59000",
        "parking_type": "street_parking",
        "parking_hoop": true,
        "is_virtual_station": false
      },
      {
        "name": "Place de Strasbourg",
        "capacity": 16,
        "station_id": "7",
        "lat": 50.633728,
        "lon": 3.055307,
        "post_code": "59000",
        "parking_type": "street_parking",
        "parking_hoop": true,
        "is_virtual_station": false
      },
      {
        "name": "Cite Administrative",
        "capacity": 16,
        "station_id": "70",
        "lat": 50.63424,
        "lon": 3.073991,
        "post_code": "59000",
        "parking_type": "street_parking",
        "parking_hoop": true,
        "is_virtual_station": false
      },
      {
        "name": "Bois Blancs",
        "capacity": 22,
        "station_id": "71",
        "lat": 50.634045,
        "lon": 3.030778,
        "post_code": "59000",
        "parking_type": "street_parking",
        "parking_hoop": true,
        "is_virtual_station": false
      },
      {
        "name": "Canteleu",
        "capacity": 18,
        "station_id": "72",
        "lat": 50.637302,
        "lon": 3.024314,
        "post_code": "59000",
        "parking_type": "street_parking",
        "parking_hoop": true,
        "is_virtual_station": false
      },
      {
        "name": "St Maurice Pellevoisin",
        "capacity": 24,
        "station_id": "73",
        "lat": 50.642315,
        "lon": 3.087979,
        "post_code": "59000",
        "parking_type": "street_parking",
        "parking_hoop": true,
        "is_virtual_station": false
      },
      {
        "name": "Faubourg de Roubaix",
        "capacity": 20,
        "station_id": "74",
        "lat": 50.641238,
        "lon": 3.083175,
        "post_code": "59000",
        "parking_type": "street_parking",
        "parking_hoop": true,
        "is_virtual_station": false
      },
      {
        "name": "Eugene Jacquet",
        "capacity": 21,
        "station_id": "75",
        "lat": 50.637337,
        "lon": 3.084894,
        "post_code": "59000",
        "parking_type": "street_parking",
        "parking_hoop": true,
        "is_virtual_station": false
      },
      {
        "name": "Fives",
        "capacity": 24,
        "station_id": "76",
        "lat": 50.632996,
        "lon": 3.089651,
        "post_code": "59000",
        "parking_type": "street_parking",
        "parking_hoop": true,
        "is_virtual_station": false
      },
      {
        "name": "Mont de Terre",
        "capacity": 18,
        "station_id": "77",
        "lat": 50.62286,
        "lon": 3.0914,
        "post_code": "59000",
        "parking_type": "street_parking",
        "parking_hoop": true,
        "is_virtual_station": false
      },
      {
        "name": "Hotel de Police",
        "capacity": 18,
        "station_id": "78",
        "lat": 50.615536,
        "lon": 3.048518,
        "post_code": "59000",
        "parking_type": "street_parking",
        "parking_hoop": true,
        "is_virtual_station": false
      },
      {
        "name": "Cimetiere du Sud",
        "capacity": 20,
        "station_id": "79",
        "lat": 50.61295,
        "lon": 3.047268,
        "post_code": "59000",
        "parking_type": "street_parking",
        "parking_hoop": true,
        "is_virtual_station": false
      },
      {
        "name": "Place Richebe",
        "capacity": 40,
        "station_id": "8",
        "lat": 50.632366,
        "lon": 3.062313,
        "post_code": "59000",
        "parking_type": "street_parking",
        "parking_hoop": true,
        "is_virtual_station": false
      },
      {
        "name": "Petit Maroc",
        "capacity": 30,
        "station_id": "80",
        "lat": 50.61989,
        "lon": 3.084357,
        "post_code": "59000",
        "parking_type": "street_parking",
        "parking_hoop": true,
        "is_virtual_station": false
      },
      {
        "name": "Guinguette",
        "capacity": 10,
        "station_id": "81",
        "lat": 50.63529,
        "lon": 3.115088,
        "post_code": "59260",
        "parking_type": "street_parking",
        "parking_hoop": true,
        "is_virtual_station": false
      },
      {
        "name": "Gare Lille Europe",
        "capacity": 32,
        "station_id": "82",
        "lat": 50.63999,
        "lon": 3.075204,
        "post_code": "59000",
        "parking_type": "street_parking",
        "parking_hoop": true,
        "is_virtual_station": false
      },
      {
        "name": "EuraTechnologies",
        "capacity": 24,
        "station_id": "83",
        "lat": 50.63378,
        "lon": 3.02059,
        "post_code": "59000",
        "parking_type": "street_parking",
        "parking_hoop": true,
        "is_virtual_station": false
      },
      {
        "name": "Mairie d'Hellemmes",
        "capacity": 24,
        "station_id": "84",
        "lat": 50.627243,
        "lon": 3.109266,
        "post_code": "59260",
        "parking_type": "street_parking",
        "parking_hoop": true,
        "is_virtual_station": false
      },
      {
        "name": "Chanzy",
        "capacity": 12,
        "station_id": "85",
        "lat": 50.62504,
        "lon": 3.1008,
        "post_code": "59260",
        "parking_type": "street_parking",
        "parking_hoop": true,
        "is_virtual_station": false
      },
      {
        "name": "Roger Salengro",
        "capacity": 12,
        "station_id": "86",
        "lat": 50.62903,
        "lon": 3.10295,
        "post_code": "59260",
        "parking_type": "street_parking",
        "parking_hoop": true,
        "is_virtual_station": false
      },
      {
        "name": "Rue Nationale",
        "capacity": 30,
        "station_id": "88",
        "lat": 50.635082,
        "lon": 3.058015,
        "post_code": "59000",
        "parking_type": "street_parking",
        "parking_hoop": true,
        "is_virtual_station": false
      },
      {
        "name": "Rue de Toul",
        "capacity": 36,
        "station_id": "9",
        "lat": 50.63393,
        "lon": 3.044986,
        "post_code": "59000",
        "parking_type": "street_parking",
        "parking_hoop": true,
        "is_virtual_station": false
      },
      {
        "name": "Louviere",
        "capacity": 20,
        "station_id": "90",
        "lat": 50.64569,
        "lon": 3.0858226,
        "post_code": "59000",
        "parking_type": "street_parking",
        "parking_hoop": true,
        "is_virtual_station": false
      },
      {
        "name": "Square des Meres",
        "capacity": 25,
        "station_id": "91",
        "lat": 50.63417,
        "lon": 3.095958,
        "post_code": "59000",
        "parking_type": "street_parking",
        "parking_hoop": true,
        "is_virtual_station": false
      },
      {
        "name": "Stade Ballet",
        "capacity": 18,
        "station_id": "93",
        "lat": 50.628918,
        "lon": 3.088147,
        "post_code": "59000",
        "parking_type": "street_parking",
        "parking_hoop": true,
        "is_virtual_station": false
      },
      {
        "name": "Marx Dormoy",
        "capacity": 24,
        "station_id": "94",
        "lat": 50.63579,
        "lon": 3.033977,
        "post_code": "59000",
        "parking_type": "street_parking",
        "parking_hoop": true,
        "is_virtual_station": false
      },
      {
        "name": "Marbrerie",
        "capacity": 18,
        "station_id": "95",
        "lat": 50.63041,
        "lon": 3.097037,
        "post_code": "59260",
        "parking_type": "street_parking",
        "parking_hoop": true,
        "is_virtual_station": false
      },
      {
        "name": "Romarin",
        "capacity": 27,
        "station_id": "96",
        "lat": 50.64543,
        "lon": 3.075116,
        "post_code": "59110",
        "parking_type": "street_parking",
        "parking_hoop": true,
        "is_virtual_station": false
      },
      {
        "name": "La Madeleine Gare",
        "capacity": 17,
        "station_id": "97",
        "lat": 50.65937,
        "lon": 3.074057,
        "post_code": "59110",
        "parking_type": "street_parking",
        "parking_hoop": true,
        "is_virtual_station": false
      },
      {
        "name": "Place du Marche",
        "capacity": 24,
        "station_id": "98",
        "lat": 50.6549,
        "lon": 3.068756,
        "post_code": "59110",
        "parking_type": "street_parking",
        "parking_hoop": true,
        "is_virtual_station": false
      },
      {
        "name": "La Madeleine Mairie",
        "capacity": 24,
        "station_id": "99",
        "lat": 50.654602,
        "lon": 3.073805,
        "post_code": "59110",
        "parking_type": "street_parking",
        "parking_hoop": true,
        "is_virtual_station": false
      },
      {
        "name": "Hopital Militaire",
        "capacity": 16,
        "station_id": "164",
        "lat": 50.63393,
        "lon": 3.061687,
        "post_code": "59000",
        "parking_type": "street_parking",
        "parking_hoop": true,
        "is_virtual_station": false
      },
      {
        "name": "Campus St Raphael",
        "capacity": 16,
        "station_id": "166",
        "lat": 50.63084,
        "lon": 3.04483,
        "post_code": "59000",
        "parking_type": "street_parking",
        "parking_hoop": true,
        "is_virtual_station": false
      },
      {
        "name": "Jemmapes",
        "capacity": 22,
        "station_id": "169",
        "lat": 50.644685,
        "lon": 3.057953,
        "post_code": "59000",
        "parking_type": "street_parking",
        "parking_hoop": true,
        "is_virtual_station": false
      },
      {
        "name": "Jean Sans Peur",
        "capacity": 14,
        "station_id": "165",
        "lat": 50.632423,
        "lon": 3.05831,
        "post_code": "59000",
        "parking_type": "street_parking",
        "parking_hoop": true,
        "is_virtual_station": false
      },
      {
        "name": "Mairie de Quartier Ouest",
        "capacity": 12,
        "station_id": "266",
        "lat": 50.6875,
        "lon": 3.1585592,
        "post_code": "59100",
        "parking_type": "street_parking",
        "parking_hoop": true,
        "is_virtual_station": false
      },
      {
        "name": "Becquart",
        "capacity": 12,
        "station_id": "182",
        "lat": 50.649644,
        "lon": 3.03812,
        "post_code": "59130",
        "parking_type": "street_parking",
        "parking_hoop": true,
        "is_virtual_station": false
      },
      {
        "name": "Rives de la Haute Deule",
        "capacity": 14,
        "station_id": "168",
        "lat": 50.630596,
        "lon": 3.023001,
        "post_code": "59000",
        "parking_type": "street_parking",
        "parking_hoop": true,
        "is_virtual_station": false
      },
      {
        "name": "CHU - Centre Oscar Lambret",
        "capacity": 20,
        "station_id": "173",
        "lat": 50.61352,
        "lon": 3.03677,
        "post_code": "59000",
        "parking_type": "street_parking",
        "parking_hoop": true,
        "is_virtual_station": false
      },
      {
        "name": "CHU - Eurasant",
        "capacity": 28,
        "station_id": "174",
        "lat": 50.607664,
        "lon": 3.038892,
        "post_code": "59000",
        "parking_type": "street_parking",
        "parking_hoop": true,
        "is_virtual_station": false
      },
      {
        "name": "Rue de Londres",
        "capacity": 14,
        "station_id": "177",
        "lat": 50.616763,
        "lon": 3.023032,
        "post_code": "59120",
        "parking_type": "street_parking",
        "parking_hoop": true,
        "is_virtual_station": false
      },
      {
        "name": "Sainte Hlne",
        "capacity": 12,
        "station_id": "185",
        "lat": 50.65722,
        "lon": 3.056147,
        "post_code": "59350",
        "parking_type": "street_parking",
        "parking_hoop": true,
        "is_virtual_station": false
      },
      {
        "name": "Louis Braille",
        "capacity": 12,
        "station_id": "188",
        "lat": 50.637103,
        "lon": 3.097538,
        "post_code": "59370",
        "parking_type": "street_parking",
        "parking_hoop": true,
        "is_virtual_station": false
      },
      {
        "name": "Marcq Mairie",
        "capacity": 12,
        "station_id": "186",
        "lat": 50.672455,
        "lon": 3.092388,
        "post_code": "59700",
        "parking_type": "street_parking",
        "parking_hoop": true,
        "is_virtual_station": false
      },
      {
        "name": "Croix Centre",
        "capacity": 16,
        "station_id": "265",
        "lat": 50.67441,
        "lon": 3.14721,
        "post_code": "59170",
        "parking_type": "street_parking",
        "parking_hoop": true,
        "is_virtual_station": false
      },
      {
        "name": "Square Jean Monnet",
        "capacity": 15,
        "station_id": "180",
        "lat": 50.652107,
        "lon": 3.029324,
        "post_code": "59130",
        "parking_type": "street_parking",
        "parking_hoop": true,
        "is_virtual_station": false
      },
      {
        "name": "Rue du Parc",
        "capacity": 12,
        "station_id": "184",
        "lat": 50.651107,
        "lon": 3.0678,
        "post_code": "59700",
        "parking_type": "street_parking",
        "parking_hoop": true,
        "is_virtual_station": false
      },
      {
        "name": "Gantois",
        "capacity": 12,
        "station_id": "170",
        "lat": 50.62195,
        "lon": 3.06038,
        "post_code": "59000",
        "parking_type": "street_parking",
        "parking_hoop": true,
        "is_virtual_station": false
      },
      {
        "name": "Place de la Garonne",
        "capacity": 12,
        "station_id": "172",
        "lat": 50.612635,
        "lon": 3.059261,
        "post_code": "59000",
        "parking_type": "street_parking",
        "parking_hoop": true,
        "is_virtual_station": false
      },
      {
        "name": "Auberge de jeunesse",
        "capacity": 16,
        "station_id": "171",
        "lat": 50.62479,
        "lon": 3.080467,
        "post_code": "59000",
        "parking_type": "street_parking",
        "parking_hoop": true,
        "is_virtual_station": false
      },
      {
        "name": "Blanchemaille",
        "capacity": 8,
        "station_id": "268",
        "lat": 50.696909,
        "lon": 3.168664,
        "post_code": "59100",
        "parking_type": "street_parking",
        "parking_hoop": true,
        "is_virtual_station": false
      },
      {
        "name": "Recherche",
        "capacity": 16,
        "station_id": "175",
        "lat": 50.60301,
        "lon": 3.038779,
        "post_code": "59120",
        "parking_type": "street_parking",
        "parking_hoop": true,
        "is_virtual_station": false
      },
      {
        "name": "Le Stadium",
        "capacity": 14,
        "station_id": "192",
        "lat": 50.6312847,
        "lon": 3.1350379,
        "post_code": "59650",
        "parking_type": "street_parking",
        "parking_hoop": true,
        "is_virtual_station": false
      },
      {
        "name": "Ferme d'en haut",
        "capacity": 18,
        "station_id": "191",
        "lat": 50.638838,
        "lon": 3.1317727,
        "post_code": "59650",
        "parking_type": "street_parking",
        "parking_hoop": true,
        "is_virtual_station": false
      },
      {
        "name": "Chaude Rivire",
        "capacity": 15,
        "station_id": "161",
        "lat": 50.634417,
        "lon": 3.0822274,
        "post_code": "59000",
        "parking_type": "street_parking",
        "parking_hoop": true,
        "is_virtual_station": false
      },
      {
        "name": "Facult de mdecine",
        "capacity": 16,
        "station_id": "176",
        "lat": 50.604499,
        "lon": 3.031421,
        "post_code": "59120",
        "parking_type": "street_parking",
        "parking_hoop": true,
        "is_virtual_station": false
      },
      {
        "name": "Notebart",
        "capacity": 20,
        "station_id": "197",
        "lat": 50.630678,
        "lon": 3.013423,
        "post_code": "59160",
        "parking_type": "street_parking",
        "parking_hoop": true,
        "is_virtual_station": false
      },
      {
        "name": "Place de la boucherie",
        "capacity": 20,
        "station_id": "183",
        "lat": 50.658048,
        "lon": 3.063774,
        "post_code": "59110",
        "parking_type": "street_parking",
        "parking_hoop": true,
        "is_virtual_station": false
      },
      {
        "name": "Tranquillit",
        "capacity": 20,
        "station_id": "167",
        "lat": 50.626107,
        "lon": 3.046295,
        "post_code": "59000",
        "parking_type": "street_parking",
        "parking_hoop": true,
        "is_virtual_station": false
      },
      {
        "name": "Marquette Mairie",
        "capacity": 20,
        "station_id": "310",
        "lat": 50.676607,
        "lon": 3.065308,
        "post_code": "59520",
        "parking_type": "street_parking",
        "parking_hoop": true,
        "is_virtual_station": false
      },
      {
        "name": "Pont de l'Abbaye",
        "capacity": 20,
        "station_id": "313",
        "lat": 50.666236,
        "lon": 3.06415,
        "post_code": "59520",
        "parking_type": "street_parking",
        "parking_hoop": true,
        "is_virtual_station": false
      },
      {
        "name": "Pav de Lille ",
        "capacity": 20,
        "station_id": "270",
        "lat": 50.664211,
        "lon": 3.130098,
        "post_code": "59290",
        "parking_type": "street_parking",
        "parking_hoop": true,
        "is_virtual_station": false
      },
      {
        "name": "Anatole France",
        "capacity": 17,
        "station_id": "196",
        "lat": 50.636003,
        "lon": 3.009396,
        "post_code": "59160",
        "parking_type": "street_parking",
        "parking_hoop": true,
        "is_virtual_station": false
      },
      {
        "name": "Wasquehal Hotel de ville ",
        "capacity": 20,
        "station_id": "271",
        "lat": 50.669917,
        "lon": 3.13075,
        "post_code": "59290",
        "parking_type": "street_parking",
        "parking_hoop": true,
        "is_virtual_station": false
      },
      {
        "name": "Piscine des 3 Villes",
        "capacity": 14,
        "station_id": "273",
        "lat": 50.670865,
        "lon": 3.198875,
        "post_code": "59200",
        "parking_type": "street_parking",
        "parking_hoop": true,
        "is_virtual_station": false
      },
      {
        "name": "Calmette",
        "capacity": 8,
        "station_id": "274",
        "lat": 50.667847,
        "lon": 3.192974,
        "post_code": "59510",
        "parking_type": "street_parking",
        "parking_hoop": true,
        "is_virtual_station": false
      },
      {
        "name": "Rsistance",
        "capacity": 20,
        "station_id": "303",
        "lat": 50.60709,
        "lon": 3.06558,
        "post_code": "59155",
        "parking_type": "street_parking",
        "parking_hoop": true,
        "is_virtual_station": false
      },
      {
        "name": "4 vents ",
        "capacity": 20,
        "station_id": "307",
        "lat": 50.612389,
        "lon": 3.122953,
        "post_code": "59260",
        "parking_type": "street_parking",
        "parking_hoop": true,
        "is_virtual_station": false
      },
      {
        "name": "Quai 22",
        "capacity": 14,
        "station_id": "190",
        "lat": 50.662941,
        "lon": 3.057167,
        "post_code": "59350",
        "parking_type": "street_parking",
        "parking_hoop": true,
        "is_virtual_station": false
      },
      {
        "name": "Bel Air",
        "capacity": 20,
        "station_id": "193",
        "lat": 50.658146,
        "lon": 3.042003,
        "post_code": "59350",
        "parking_type": "street_parking",
        "parking_hoop": true,
        "is_virtual_station": false
      },
      {
        "name": "Fer  cheval",
        "capacity": 20,
        "station_id": "267",
        "lat": 50.670155,
        "lon": 3.154898,
        "post_code": "59100",
        "parking_type": "street_parking",
        "parking_hoop": true,
        "is_virtual_station": false
      },
      {
        "name": "Georges Hannart",
        "capacity": 20,
        "station_id": "276",
        "lat": 50.67756,
        "lon": 3.14019,
        "post_code": "59170",
        "parking_type": "street_parking",
        "parking_hoop": true,
        "is_virtual_station": false
      },
      {
        "name": "Faches Thumesnil Mairie",
        "capacity": 20,
        "station_id": "302",
        "lat": 50.603145,
        "lon": 3.069127,
        "post_code": "59155",
        "parking_type": "street_parking",
        "parking_hoop": true,
        "is_virtual_station": false
      },
      {
        "name": "Sadi carnot",
        "capacity": 20,
        "station_id": "308",
        "lat": 50.611307,
        "lon": 2.994654,
        "post_code": "59320",
        "parking_type": "street_parking",
        "parking_hoop": true,
        "is_virtual_station": false
      },
      {
        "name": "Parvis Rotterdam",
        "capacity": 20,
        "station_id": "160",
        "lat": 50.637709,
        "lon": 3.077478,
        "post_code": "59000",
        "parking_type": "street_parking",
        "parking_hoop": true,
        "is_virtual_station": false
      },
      {
        "name": "Jeanne d'Arc",
        "capacity": 20,
        "station_id": "163",
        "lat": 50.625597,
        "lon": 3.064497,
        "post_code": "59000",
        "parking_type": "street_parking",
        "parking_hoop": true,
        "is_virtual_station": false
      },
      {
        "name": "Bourse du Travail",
        "capacity": 20,
        "station_id": "179",
        "lat": 50.626052,
        "lon": 3.090898,
        "post_code": "59000",
        "parking_type": "street_parking",
        "parking_hoop": true,
        "is_virtual_station": false
      },
      {
        "name": "Haut de Mons",
        "capacity": 16,
        "station_id": "189",
        "lat": 50.646432,
        "lon": 3.106626,
        "post_code": "59370",
        "parking_type": "street_parking",
        "parking_hoop": true,
        "is_virtual_station": false
      },
      {
        "name": "Lommelet",
        "capacity": 20,
        "station_id": "194",
        "lat": 50.665968,
        "lon": 3.049462,
        "post_code": "59350",
        "parking_type": "street_parking",
        "parking_hoop": true,
        "is_virtual_station": false
      },
      {
        "name": "Tisserand",
        "capacity": 20,
        "station_id": "195",
        "lat": 50.631135,
        "lon": 3.008346,
        "post_code": "59160",
        "parking_type": "street_parking",
        "parking_hoop": true,
        "is_virtual_station": false
      },
      {
        "name": "Loos Clemenceau",
        "capacity": 20,
        "station_id": "198",
        "lat": 50.614392,
        "lon": 3.010842,
        "post_code": "59120",
        "parking_type": "street_parking",
        "parking_hoop": true,
        "is_virtual_station": false
      },
      {
        "name": "Georges Poti",
        "capacity": 20,
        "station_id": "199",
        "lat": 50.612899,
        "lon": 3.003575,
        "post_code": "59120",
        "parking_type": "street_parking",
        "parking_hoop": true,
        "is_virtual_station": false
      },
      {
        "name": "Charles Fourier",
        "capacity": 12,
        "station_id": "272",
        "lat": 50.671609,
        "lon": 3.183066,
        "post_code": "59512",
        "parking_type": "street_parking",
        "parking_hoop": true,
        "is_virtual_station": false
      },
      {
        "name": "Rousseau",
        "capacity": 20,
        "station_id": "300",
        "lat": 50.64466,
        "lon": 3.03027,
        "post_code": "59130",
        "parking_type": "street_parking",
        "parking_hoop": true,
        "is_virtual_station": false
      },
      {
        "name": "Saint Calixte",
        "capacity": 20,
        "station_id": "301",
        "lat": 50.65281,
        "lon": 3.02604,
        "post_code": "59130",
        "parking_type": "street_parking",
        "parking_hoop": true,
        "is_virtual_station": false
      },
      {
        "name": "Le Sart",
        "capacity": 20,
        "station_id": "304",
        "lat": 50.66351,
        "lon": 3.138682,
        "post_code": "59491",
        "parking_type": "street_parking",
        "parking_hoop": true,
        "is_virtual_station": false
      },
      {
        "name": "La Maillerie ",
        "capacity": 20,
        "station_id": "305",
        "lat": 50.669719,
        "lon": 3.143504,
        "post_code": "59491",
        "parking_type": "street_parking",
        "parking_hoop": true,
        "is_virtual_station": false
      },
      {
        "name": "Chatellenie ",
        "capacity": 20,
        "station_id": "306",
        "lat": 50.635929,
        "lon": 3.135558,
        "post_code": "59491",
        "parking_type": "street_parking",
        "parking_hoop": true,
        "is_virtual_station": false
      },
      {
        "name": "Haubourdin Mairie",
        "capacity": 24,
        "station_id": "309",
        "lat": 50.610949,
        "lon": 2.983879,
        "post_code": "59320",
        "parking_type": "street_parking",
        "parking_hoop": true,
        "is_virtual_station": false
      },
      {
        "name": "Grands Moulins de Paris",
        "capacity": 20,
        "station_id": "311",
        "lat": 50.671436,
        "lon": 3.055025,
        "post_code": "59520",
        "parking_type": "street_parking",
        "parking_hoop": true,
        "is_virtual_station": false
      },
      {
        "name": "Saint Roch",
        "capacity": 20,
        "station_id": "312",
        "lat": 50.672503,
        "lon": 3.069332,
        "post_code": "59520",
        "parking_type": "street_parking",
        "parking_hoop": true,
        "is_virtual_station": false
      },
      {
        "name": "Delory Barbieux ",
        "capacity": 20,
        "station_id": "269",
        "lat": 50.676665,
        "lon": 3.167315,
        "post_code": "59100",
        "parking_type": "street_parking",
        "parking_hoop": true,
        "is_virtual_station": false
      },
      {
        "name": "Marie Marrant ",
        "capacity": 24,
        "station_id": "181",
        "lat": 50.64872,
        "lon": 3.06988,
        "post_code": "59110",
        "parking_type": "street_parking",
        "parking_hoop": true,
        "is_virtual_station": false
      },
      {
        "name": "Cit Marianne",
        "capacity": 12,
        "station_id": "187",
        "lat": 50.61843,
        "lon": 3.05078,
        "post_code": "59000",
        "parking_type": "street_parking",
        "parking_hoop": true,
        "is_virtual_station": false
      },
      {
        "name": "Robersart",
        "capacity": 16,
        "station_id": "314",
        "lat": 50.68656,
        "lon": 3.05332,
        "post_code": "59118",
        "parking_type": "street_parking",
        "parking_hoop": true,
        "is_virtual_station": false
      },
      {
        "name": "Petit Paradis",
        "capacity": 12,
        "station_id": "315",
        "lat": 50.68245,
        "lon": 3.05179,
        "post_code": "59118",
        "parking_type": "street_parking",
        "parking_hoop": true,
        "is_virtual_station": false
      },
      {
        "name": "Ramponneau",
        "capacity": 20,
        "station_id": "316",
        "lat": 50.6399,
        "lon": 3.05323,
        "post_code": "59000",
        "parking_type": "street_parking",
        "parking_hoop": true,
        "is_virtual_station": false
      },
      {
        "name": "Gare d'eau",
        "capacity": 14,
        "station_id": "317",
        "lat": 50.62911,
        "lon": 3.02139,
        "post_code": "59000",
        "parking_type": "street_parking",
        "parking_hoop": true,
        "is_virtual_station": false
      },
      {
        "name": "Hellu - pine",
        "capacity": 14,
        "station_id": "318",
        "lat": 50.61946,
        "lon": 3.09978,
        "post_code": "59260",
        "parking_type": "street_parking",
        "parking_hoop": true,
        "is_virtual_station": false
      },
      {
        "name": "Mitterie",
        "capacity": 16,
        "station_id": "319",
        "lat": 50.64697,
        "lon": 3.00768,
        "post_code": "59160",
        "parking_type": "street_parking",
        "parking_hoop": true,
        "is_virtual_station": false
      },
      {
        "name": "Station Provisoire 1",
        "capacity": 20,
        "station_id": "995",
        "lat": 50.647019,
        "lon": 3.057778,
        "post_code": "59000",
        "parking_type": "street_parking",
        "parking_hoop": true,
        "is_virtual_station": false
      }
    ]
  },
  "last_updated": 1771749843
}